ORBCOMM FM114           
1 41179U 15081A   25017.79330267  .00001250  00000+0  30748-3 0  9991
2 41179  47.0027 276.9815 0002064  13.5563 346.5377 14.57766214482571
ORBCOMM FM110           
1 41182U 15081D   25017.76845821  .00001662  00000+0  39628-3 0  9992
2 41182  47.0018 276.4639 0001390 176.0282 184.0614 14.57824309482577
ORBCOMM FM112           
1 41184U 15081F   25017.20152803  .00001714  00000+0  40889-3 0  9993
2 41184  46.9974 188.1979 0000147  31.2356 328.8538 14.57648496483639
ORBCOMM FM113           
1 41185U 15081G   25017.17851119  .00001737  00000+0  41316-3 0  9997
2 41185  46.9991 188.6101 0000666 129.3661 230.7283 14.57731713483616
ORBCOMM FM108           
1 41187U 15081J   25017.26839976  .00001846  00000+0  43778-3 0  9991
2 41187  47.0051  99.4619 0003255 314.3311  45.7307 14.57644686484776
ORBCOMM FM117           
1 41188U 15081K   25017.30338021  .00002475  00000+0  57429-3 0  9999
2 41188  47.0008  98.1123 0003367 324.5659  35.5002 14.57645898484828
ORBCOMM FM116           
1 41189U 15081L   25016.81397307  .00001078  00000+0  27082-3 0  9997
2 41189  47.0004 190.2736 0001017  94.3787 265.7214 14.57655739483560
CHUBUSAT-2              
1 41338U 16012B   25017.31523754  .00008989  00000+0  48996-3 0  9996
2 41338  31.0003  87.9155 0010299 229.4128 130.5615 15.13030886490001
CHUBUSAT-3              
1 41339U 16012C   25017.57397412  .00008310  00000+0  46708-3 0  9992
2 41339  31.0070  86.5861 0010408 234.0145 125.9529 15.11909773490008
HORYU-4                 
1 41340U 16012D   25017.32870724  .00025530  00000+0  90658-3 0  9995
2 41340  30.9996   9.0043 0005939   3.2835 356.7846 15.27830153490796
ZIYUAN 3-2 (ZY 3-2)     
1 41556U 16033A   25017.78032579  .00012175  00000+0  55170-3 0  9996
2 41556  97.4347  96.7947 0010275 313.2135  46.8242 15.20954759479623
CARTOSAT-2C             
1 41599U 16040A   25017.87308499  .00008539  00000+0  40615-3 0  9995
2 41599  97.4449  80.3086 0012969 123.8221 236.4250 15.19350571475474
LAPAN-A3                
1 41603U 16040E   25017.90482652  .00005970  00000+0  21962-3 0  9999
2 41603  97.1389  28.2589 0013163  62.9262 297.3320 15.28148019475986
BIROS                   
1 41604U 16040F   25017.63765331  .00033875  00000+0  58892-3 0  9995
2 41604  97.1035  47.3418 0006694   4.7109 355.4205 15.50712724477269
M3MSAT                  
1 41605U 16040G   25017.59821441  .00034375  00000+0  59840-3 0  9996
2 41605  97.1001  44.4035 0007574  22.1251 338.0327 15.50665626477075
GAOFEN-3                
1 41727U 16049A   25017.81190139  .00000169  00000+0  64581-4 0  9991
2 41727  98.4054  28.2973 0001013  91.2479 268.8827 14.42234445444355
QSS (MOZI)              
1 41731U 16051A   25017.90371190  .00019370  00000+0  39469-3 0  9997
2 41731  97.3045 295.9662 0008819 152.4448 207.7270 15.46238158469770
PRATHAM                 
1 41783U 16059A   25016.99210793  .00001460  00000+0  27320-3 0  9995
2 41783  97.8280  32.3251 0033269  62.8912 297.5680 14.65906194443852
ALSAT 1N                
1 41789U 16059G   25017.83888318  .00002126  00000+0  37895-3 0  9997
2 41789  97.8142  39.4867 0027492  37.0829 323.2269 14.67765296444363
CAS-2T & KS-1Q          
1 41847U 16066G   25017.78892804  .00002686  00000+0  39549-3 0  9998
2 41847  98.4371  93.4593 0347814 250.1555 106.1838 14.42723860430428
YUNHAI-1 01             
1 41857U 16068A   25017.80169880  .00000577  00000+0  22587-3 0  9996
2 41857  98.5926  28.2330 0007150  85.7594 274.4407 14.33190887428023
RESOURCESAT-2A          
1 41877U 16074A   25017.38461526  .00000309  00000+0  16012-3 0  9999
2 41877  98.6237  92.2723 0002107  94.8073 265.3345 14.21688147421018
TANSAT                  
1 41898U 16081A   25017.82853942  .00000948  00000+0  21074-3 0  9999
2 41898  98.4975 359.1418 0021890 100.3449 260.0219 14.59225603429446
JILIN-1 03              
1 41914U 17002B   25017.94379405  .00015249  00000+0  57748-3 0  9999
2 41914  97.2073  32.5050 0006628 210.2939 149.7918 15.26981475442852
KAIDUN 1                
1 41915U 17002C   25017.86523650  .00044149  00000+0  93713-3 0  9997
2 41915  97.1781  46.8888 0004921 154.9418 205.2071 15.44898962443830
CARTOSAT-2D             
1 41948U 17008A   25017.90388111  .00013935  00000+0  66552-3 0  9995
2 41948  97.4842  79.4440 0003778 251.0414 109.0411 15.19147920439340
ZHUHAI-1 02 (CAS-4B)    
1 42759U 17034B   25017.54718539  .00043580  00000+0  91246-3 0  9993
2 42759  43.0129  81.9827 0015194   9.4138 350.7002 15.44610151420357
ZHUHAI-1 01 (CAS-4A)    
1 42761U 17034D   25017.32618101  .00043507  00000+0  89887-3 0  9993
2 42761  43.0165  81.3066 0016167  15.7850 344.3510 15.44984917420325
CARTOSAT-2E             
1 42767U 17036C   25017.78900522  .00008697  00000+0  41492-3 0  9993
2 42767  97.4091  79.5245 0003604 330.8213  29.2820 15.19305670419894
D-SAT                   
1 42794U 17036AF  25016.90439135  .00008783  00000+0  53174-3 0  9999
2 42794  97.4997 357.9454 0100809 139.5208 221.3576 15.06601456412867
IRIDIUM 113             
1 42803U 17039A   25017.79054228  .00000629  00000+0  21761-3 0  9995
2 42803  86.4010 177.5530 0001552  83.5642 276.5730 14.34218932397317
NORSAT 2                
1 42828U 17042D   25017.48534730  .00013290  00000+0  85912-3 0  9999
2 42828  97.3770 200.0580 0014106  45.2435 314.9939 15.08247310409641
TECHNOSAT               
1 42829U 17042E   25017.37747683  .00005728  00000+0  46449-3 0  9990
2 42829  97.3927 193.0513 0014232  66.1294 294.1420 14.99964234409248
FLYING LAPTOP           
1 42831U 17042G   25017.59179539  .00003915  00000+0  34010-3 0  9993
2 42831  97.3904 192.5646 0013240  74.8074 285.4612 14.97479684409195
WNISAT 1R               
1 42835U 17042L   25017.38052243  .00003652  00000+0  31565-3 0  9996
2 42835  97.3905 192.2621 0013136  72.9699 287.2962 14.97722315409196
LEMUR-2-GREENBERG       
1 42837U 17042N   25017.26239212  .00016256  00000+0  92408-3 0  9995
2 42837  97.3594 203.0912 0013619  20.6529 339.5250 15.12883331409919
LEMUR-2-FURIAUS         
1 42840U 17042R   25017.01195503  .00014833  00000+0  88298-3 0  9997
2 42840  97.3601 202.2006 0012537  68.9916 291.2654 15.11250009409786
CORVUS BC2              
1 42846U 17042X   25017.02126700  .00005279  00000+0  41593-3 0  9998
2 42846  97.3671 196.7320 0014465  61.0385 299.2289 15.01095403409484
CORVUS BC1              
1 42847U 17042Y   25017.76063316  .00006134  00000+0  48033-3 0  9990
2 42847  97.3694 197.8615 0013837  36.1859 324.0299 15.01277542409619
VRSS-2                  
1 42954U 17060A   25017.79817918  .00001785  00000+0  24371-3 0  9993
2 42954  97.7253  71.9924 0017240 347.5839  12.4946 14.79721347392199
MOHAMMED VI-A           
1 43005U 17070A   25017.83032824  .00001573  00000+0  23006-3 0  9991
2 43005  97.9532  92.5535 0001129  79.2416 280.8922 14.77052845387901
FENGYUN 3D              
1 43010U 17072A   25017.87604670  .00000238  00000+0  13445-3 0  9990
2 43010  98.9426 340.1348 0002537  84.0907 276.0558 14.19545388371873
CZ-4C R/B               
1 43012U 17072C   25017.25566631  .00000850  00000+0  17819-3 0  9997
2 43012  98.5828 103.9167 0123046 300.6739  58.2378 14.57975604381433
NOAA 20 (JPSS-1)        
1 43013U 17073A   25017.82576916  .00000164  00000+0  98645-4 0  9994
2 43013  98.7291 318.3434 0001116  23.8536 336.2692 14.19539524371354
MIRATA                  
1 43015U 17073C   25017.64971089  .00052750  00000+0  15424-2 0  9996
2 43015  97.5632 268.2874 0119518 237.6117 121.3513 15.28216184388830
MAKERSAT 0              
1 43016U 17073D   25017.58106477  .00024660  00000+0  11456-2 0  9991
2 43016  97.5417 257.5919 0162533 273.5467  84.7186 15.08930788388126
RADFXSAT (FOX-1B)       
1 43017U 17073E   25017.58439413  .00016572  00000+0  90899-3 0  9993
2 43017  97.5468 252.1121 0185303 293.4808  64.7036 15.00675482387736
EAGLESAT 1              
1 43018U 17073F   25017.63252890  .00052348  00000+0  16025-2 0  9991
2 43018  97.5634 267.7093 0123319 243.9689 114.8810 15.26421273388562
JILIN-1 04              
1 43022U 17074A   25017.88039614  .00015877  00000+0  59184-3 0  9991
2 43022  97.4804 115.1829 0004682 228.8383 131.2453 15.27513851395224
JILIN-1 05              
1 43023U 17074B   25017.87401890  .00009847  00000+0  38880-3 0  9990
2 43023  97.4832 115.5029 0004713 249.2845 110.7888 15.25719912395214
JILIN-1 06              
1 43024U 17074C   25017.85971233  .00012530  00000+0  52717-3 0  9990
2 43024  97.4817 113.4009 0007182 262.3417  97.7004 15.23507014395082
IRIDIUM 116             
1 43072U 17083C   25016.99771699  .00000047  00000+0  96886-5 0  9998
2 43072  86.4004 177.7460 0002195  91.9466 268.1981 14.34216343370189
IRIDIUM 130             
1 43073U 17083D   25017.87299348  .00000600  00000+0  20720-3 0  9990
2 43073  86.4010 177.6059 0002051  98.1946 261.9483 14.34213173370257
LKW-2                   
1 43080U 17084A   25017.88360375  .00015564  00000+0  66016-3 0  9992
2 43080  97.1939  76.0097 0001382 225.1238 134.9887 15.23193438393207
SUPERVIEW-1 03          
1 43099U 18002A   25017.85269438  .00020575  00000+0  86631-3 0  9991
2 43099  97.3536 104.2335 0068109 213.0384 146.6589 15.21243505389561
SUPERVIEW-1 04          
1 43100U 18002B   25017.82539007  .00100136  00000+0  10790-2 0  9997
2 43100  97.3550 108.5641 0000074  51.9363 308.1903 15.63365198389823
CARTOSAT-2F             
1 43111U 18004A   25017.82243631  .00008861  15302-7  42106-3 0  9994
2 43111  97.4768  79.8145 0000777 331.4563  28.6629 15.19268359386888
CARBONITE 2             
1 43115U 18004E   25017.86832691  .00064417  00000+0  69449-3 0  9991
2 43115  97.2370  96.5915 0004527 192.3450 167.7699 15.63468665391212
LKW-3                   
1 43146U 18006A   25017.90696238  .00014924  00000+0  62361-3 0  9991
2 43146  97.5952 160.5740 0004370 125.7498 234.4146 15.23712898389987
